[{"OBJECT_NAME":"STARLINK-5832","OBJECT_ID":"2023-088R","EPOCH":"2026-03-06T05:35:53.183616","MEAN_MOTION":15.02536235,"ECCENTRICITY":0.00010486,"INCLINATION":43.0007,"RA_OF_ASC_NODE":125.9121,"ARG_OF_PERICENTER":223.8621,"MEAN_ANOMALY":136.2139,"EPHEMERIS_TYPE":0,"CLASSIFICATION_TYPE":"U","NORAD_CAT_ID":57063,"ELEMENT_SET_NO":999,"REV_AT_EPOCH":14985,"BSTAR":5.7527237e-5,"MEAN_MOTION_DOT":5.74e-6,"MEAN_MOTION_DDOT":0},{"OBJECT_NAME":"STARLINK-5822","OBJECT_ID":"2023-088S","EPOCH":"2026-03-06T04:52:54.129792","MEAN_MOTION":15.02528596,"ECCENTRICITY":0.00013023,"INCLINATION":43.0029,"RA_OF_ASC_NODE":126.5517,"ARG_OF_PERICENTER":275.1946,"MEAN_ANOMALY":84.8748,"EPHEMERIS_TYPE":0,"CLASSIFICATION_TYPE":"U","NORAD_CAT_ID":57064,"ELEMENT_SET_NO":999,"REV_AT_EPOCH":14886,"BSTAR":0.00013481723,"MEAN_MOTION_DOT":1.618e-5,"MEAN_MOTION_DDOT":0},{"OBJECT_NAME":"STARLINK-5830","OBJECT_ID":"2023-088T","EPOCH":"2026-03-06T05:21:40.188384","MEAN_MOTION":15.02536546,"ECCENTRICITY":0.00010276,"INCLINATION":43.0019,"RA_OF_ASC_NODE":126.6883,"ARG_OF_PERICENTER":267.3458,"MEAN_ANOMALY":92.7267,"EPHEMERIS_TYPE":0,"CLASSIFICATION_TYPE":"U","NORAD_CAT_ID":57065,"ELEMENT_SET_NO":999,"REV_AT_EPOCH":14886,"BSTAR":1.7118667e-5,"MEAN_MOTION_DOT":2.8e-7,"MEAN_MOTION_DDOT":0},{"OBJECT_NAME":"STARLINK-5827","OBJECT_ID":"2023-088U","EPOCH":"2026-03-06T04:04:57.639648","MEAN_MOTION":15.02533758,"ECCENTRICITY":0.00012037,"INCLINATION":42.9999,"RA_OF_ASC_NODE":126.3047,"ARG_OF_PERICENTER":214.5806,"MEAN_ANOMALY":145.4958,"EPHEMERIS_TYPE":0,"CLASSIFICATION_TYPE":"U","NORAD_CAT_ID":57066,"ELEMENT_SET_NO":999,"REV_AT_EPOCH":14886,"BSTAR":-2.3185965e-5,"MEAN_MOTION_DOT":-5.17e-6,"MEAN_MOTION_DDOT":0},{"OBJECT_NAME":"STARLINK-5824","OBJECT_ID":"2023-088V","EPOCH":"2026-03-06T04:48:05.355936","MEAN_MOTION":15.02546075,"ECCENTRICITY":0.00016118,"INCLINATION":43.0042,"RA_OF_ASC_NODE":126.5177,"ARG_OF_PERICENTER":267.5241,"MEAN_ANOMALY":92.5417,"EPHEMERIS_TYPE":0,"CLASSIFICATION_TYPE":"U","NORAD_CAT_ID":57067,"ELEMENT_SET_NO":999,"REV_AT_EPOCH":14984,"BSTAR":5.1857313e-5,"MEAN_MOTION_DOT":4.97e-6,"MEAN_MOTION_DDOT":0},{"OBJECT_NAME":"STARLINK-5844","OBJECT_ID":"2023-088W","EPOCH":"2026-03-06T05:31:06.023712","MEAN_MOTION":15.0253425,"ECCENTRICITY":0.00014065,"INCLINATION":43.0025,"RA_OF_ASC_NODE":125.8924,"ARG_OF_PERICENTER":265.6369,"MEAN_ANOMALY":94.4313,"EPHEMERIS_TYPE":0,"CLASSIFICATION_TYPE":"U","NORAD_CAT_ID":57068,"ELEMENT_SET_NO":999,"REV_AT_EPOCH":14985,"BSTAR":-3.3848823e-5,"MEAN_MOTION_DOT":-6.61e-6,"MEAN_MOTION_DDOT":0},{"OBJECT_NAME":"STARLINK-5821","OBJECT_ID":"2023-088X","EPOCH":"2026-03-06T05:11:58.226496","MEAN_MOTION":15.0281164,"ECCENTRICITY":5.776e-5,"INCLINATION":43.0019,"RA_OF_ASC_NODE":113.6531,"ARG_OF_PERICENTER":0.2845,"MEAN_ANOMALY":359.7998,"EPHEMERIS_TYPE":0,"CLASSIFICATION_TYPE":"U","NORAD_CAT_ID":57069,"ELEMENT_SET_NO":999,"REV_AT_EPOCH":14982,"BSTAR":0.0023547661,"MEAN_MOTION_DOT":0.00031985,"MEAN_MOTION_DDOT":0},{"OBJECT_NAME":"STARLINK-5828","OBJECT_ID":"2023-088Y","EPOCH":"2026-03-06T06:00:02.000160","MEAN_MOTION":15.06647577,"ECCENTRICITY":0.00016176,"INCLINATION":42.9999,"RA_OF_ASC_NODE":113.6524,"ARG_OF_PERICENTER":311.4049,"MEAN_ANOMALY":153.8875,"EPHEMERIS_TYPE":0,"CLASSIFICATION_TYPE":"U","NORAD_CAT_ID":57070,"ELEMENT_SET_NO":999,"REV_AT_EPOCH":568,"BSTAR":0.00090836082,"MEAN_MOTION_DOT":0.00013515,"MEAN_MOTION_DDOT":0},{"OBJECT_NAME":"STARLINK-5834","OBJECT_ID":"2023-088Z","EPOCH":"2026-03-06T03:46:46.656480","MEAN_MOTION":15.03165459,"ECCENTRICITY":0.00018473,"INCLINATION":43.0049,"RA_OF_ASC_NODE":114.0702,"ARG_OF_PERICENTER":306.794,"MEAN_ANOMALY":53.2733,"EPHEMERIS_TYPE":0,"CLASSIFICATION_TYPE":"U","NORAD_CAT_ID":57071,"ELEMENT_SET_NO":999,"REV_AT_EPOCH":14981,"BSTAR":0.0051660209,"MEAN_MOTION_DOT":0.00071484,"MEAN_MOTION_DDOT":0},{"OBJECT_NAME":"STARLINK-5843","OBJECT_ID":"2023-088AA","EPOCH":"2026-03-06T06:00:02.000160","MEAN_MOTION":15.065789,"ECCENTRICITY":0.00012631,"INCLINATION":43,"RA_OF_ASC_NODE":113.5942,"ARG_OF_PERICENTER":312.2947,"MEAN_ANOMALY":175.8981,"EPHEMERIS_TYPE":0,"CLASSIFICATION_TYPE":"U","NORAD_CAT_ID":57072,"ELEMENT_SET_NO":999,"REV_AT_EPOCH":577,"BSTAR":0.00094907543,"MEAN_MOTION_DOT":0.00014105,"MEAN_MOTION_DDOT":0},{"OBJECT_NAME":"STARLINK-5838","OBJECT_ID":"2023-088AB","EPOCH":"2026-03-06T06:00:02.000160","MEAN_MOTION":15.05566207,"ECCENTRICITY":0.0001973,"INCLINATION":42.9996,"RA_OF_ASC_NODE":113.6586,"ARG_OF_PERICENTER":263.5114,"MEAN_ANOMALY":197.0915,"EPHEMERIS_TYPE":0,"CLASSIFICATION_TYPE":"U","NORAD_CAT_ID":57073,"ELEMENT_SET_NO":999,"REV_AT_EPOCH":577,"BSTAR":0.00096836692,"MEAN_MOTION_DOT":0.00014004,"MEAN_MOTION_DDOT":0},{"OBJECT_NAME":"STARLINK-5773","OBJECT_ID":"2023-088AC","EPOCH":"2026-03-06T03:50:34.304928","MEAN_MOTION":15.02533039,"ECCENTRICITY":9.004e-5,"INCLINATION":43.0001,"RA_OF_ASC_NODE":126.2247,"ARG_OF_PERICENTER":262.7578,"MEAN_ANOMALY":97.3162,"EPHEMERIS_TYPE":0,"CLASSIFICATION_TYPE":"U","NORAD_CAT_ID":57074,"ELEMENT_SET_NO":999,"REV_AT_EPOCH":14984,"BSTAR":1.7838068e-5,"MEAN_MOTION_DOT":3.7e-7,"MEAN_MOTION_DDOT":0},{"OBJECT_NAME":"STARLINK-5542","OBJECT_ID":"2023-088AD","EPOCH":"2026-03-06T03:29:09.471264","MEAN_MOTION":15.03207968,"ECCENTRICITY":0.0001195,"INCLINATION":43.0036,"RA_OF_ASC_NODE":113.971,"ARG_OF_PERICENTER":301.086,"MEAN_ANOMALY":58.9865,"EPHEMERIS_TYPE":0,"CLASSIFICATION_TYPE":"U","NORAD_CAT_ID":57075,"ELEMENT_SET_NO":999,"REV_AT_EPOCH":14998,"BSTAR":0.0056645631,"MEAN_MOTION_DOT":0.0007857,"MEAN_MOTION_DDOT":0},{"OBJECT_NAME":"STARLINK-6155","OBJECT_ID":"2023-088AE","EPOCH":"2026-03-06T05:27:52.942176","MEAN_MOTION":15.02866654,"ECCENTRICITY":0.00013879,"INCLINATION":43.0047,"RA_OF_ASC_NODE":113.7347,"ARG_OF_PERICENTER":340.0755,"MEAN_ANOMALY":20.0033,"EPHEMERIS_TYPE":0,"CLASSIFICATION_TYPE":"U","NORAD_CAT_ID":57076,"ELEMENT_SET_NO":999,"REV_AT_EPOCH":14982,"BSTAR":0.0028777775,"MEAN_MOTION_DOT":0.00039232,"MEAN_MOTION_DDOT":0},{"OBJECT_NAME":"STARLINK-6194","OBJECT_ID":"2023-088AF","EPOCH":"2026-03-04T03:46:18.101280","MEAN_MOTION":15.0264642,"ECCENTRICITY":0.00010898,"INCLINATION":43.002,"RA_OF_ASC_NODE":124.8585,"ARG_OF_PERICENTER":315.077,"MEAN_ANOMALY":44.9984,"EPHEMERIS_TYPE":0,"CLASSIFICATION_TYPE":"U","NORAD_CAT_ID":57077,"ELEMENT_SET_NO":999,"REV_AT_EPOCH":14985,"BSTAR":0.0010182251,"MEAN_MOTION_DOT":0.00013618,"MEAN_MOTION_DDOT":0},{"OBJECT_NAME":"STARLINK-6245","OBJECT_ID":"2023-088AH","EPOCH":"2026-03-06T06:00:02.000160","MEAN_MOTION":15.07235389,"ECCENTRICITY":0.00012816,"INCLINATION":42.9997,"RA_OF_ASC_NODE":113.2569,"ARG_OF_PERICENTER":312.4907,"MEAN_ANOMALY":314.2148,"EPHEMERIS_TYPE":0,"CLASSIFICATION_TYPE":"U","NORAD_CAT_ID":57079,"ELEMENT_SET_NO":999,"REV_AT_EPOCH":572,"BSTAR":0.0010600444,"MEAN_MOTION_DOT":0.00016069,"MEAN_MOTION_DDOT":0},{"OBJECT_NAME":"STARLINK-6243","OBJECT_ID":"2023-088AJ","EPOCH":"2026-03-06T03:43:06.072960","MEAN_MOTION":15.02545822,"ECCENTRICITY":0.00012199,"INCLINATION":43.0017,"RA_OF_ASC_NODE":114.0468,"ARG_OF_PERICENTER":270.4616,"MEAN_ANOMALY":89.6086,"EPHEMERIS_TYPE":0,"CLASSIFICATION_TYPE":"U","NORAD_CAT_ID":57080,"ELEMENT_SET_NO":999,"REV_AT_EPOCH":14981,"BSTAR":0.00011494304,"MEAN_MOTION_DOT":1.35e-5,"MEAN_MOTION_DDOT":0},{"OBJECT_NAME":"STARLINK-6184","OBJECT_ID":"2023-088AK","EPOCH":"2026-03-06T06:00:02.000160","MEAN_MOTION":15.06021146,"ECCENTRICITY":7.178e-5,"INCLINATION":43.0006,"RA_OF_ASC_NODE":113.2564,"ARG_OF_PERICENTER":300.2502,"MEAN_ANOMALY":327.9686,"EPHEMERIS_TYPE":0,"CLASSIFICATION_TYPE":"U","NORAD_CAT_ID":57081,"ELEMENT_SET_NO":999,"REV_AT_EPOCH":577,"BSTAR":0.0012752239,"MEAN_MOTION_DOT":0.0001875,"MEAN_MOTION_DDOT":0},{"OBJECT_NAME":"STARLINK-6248","OBJECT_ID":"2023-088AL","EPOCH":"2026-03-06T03:27:08.254656","MEAN_MOTION":15.02534768,"ECCENTRICITY":0.00015256,"INCLINATION":43.0033,"RA_OF_ASC_NODE":113.9637,"ARG_OF_PERICENTER":264.6311,"MEAN_ANOMALY":95.4357,"EPHEMERIS_TYPE":0,"CLASSIFICATION_TYPE":"U","NORAD_CAT_ID":57082,"ELEMENT_SET_NO":999,"REV_AT_EPOCH":14998,"BSTAR":7.054157e-6,"MEAN_MOTION_DOT":-1.08e-6,"MEAN_MOTION_DDOT":0},{"OBJECT_NAME":"STARLINK-6253","OBJECT_ID":"2023-088AM","EPOCH":"2026-03-06T03:06:13.276512","MEAN_MOTION":15.02611528,"ECCENTRICITY":0.00023802,"INCLINATION":43.0004,"RA_OF_ASC_NODE":113.8508,"ARG_OF_PERICENTER":302.1721,"MEAN_ANOMALY":57.889,"EPHEMERIS_TYPE":0,"CLASSIFICATION_TYPE":"U","NORAD_CAT_ID":57083,"ELEMENT_SET_NO":999,"REV_AT_EPOCH":14998,"BSTAR":0.00064505639,"MEAN_MOTION_DOT":8.538e-5,"MEAN_MOTION_DDOT":0},{"OBJECT_NAME":"STARLINK-6240","OBJECT_ID":"2023-088AN","EPOCH":"2026-03-06T06:00:02.000160","MEAN_MOTION":15.07005037,"ECCENTRICITY":0.00015252,"INCLINATION":42.9997,"RA_OF_ASC_NODE":113.2519,"ARG_OF_PERICENTER":238.7149,"MEAN_ANOMALY":33.7636,"EPHEMERIS_TYPE":0,"CLASSIFICATION_TYPE":"U","NORAD_CAT_ID":57084,"ELEMENT_SET_NO":999,"REV_AT_EPOCH":582,"BSTAR":0.0012594323,"MEAN_MOTION_DOT":0.0001902,"MEAN_MOTION_DDOT":0},{"OBJECT_NAME":"STARLINK-6232","OBJECT_ID":"2023-088AP","EPOCH":"2026-03-06T06:00:02.000160","MEAN_MOTION":15.06336707,"ECCENTRICITY":0.00022482,"INCLINATION":42.9999,"RA_OF_ASC_NODE":113.0991,"ARG_OF_PERICENTER":261.8612,"MEAN_ANOMALY":73.1027,"EPHEMERIS_TYPE":0,"CLASSIFICATION_TYPE":"U","NORAD_CAT_ID":57085,"ELEMENT_SET_NO":999,"REV_AT_EPOCH":577,"BSTAR":0.0012113132,"MEAN_MOTION_DOT":0.00017952,"MEAN_MOTION_DDOT":0},{"OBJECT_NAME":"STARLINK-6247","OBJECT_ID":"2023-088AQ","EPOCH":"2026-03-06T06:00:02.000160","MEAN_MOTION":15.06105543,"ECCENTRICITY":0.00016942,"INCLINATION":43.0001,"RA_OF_ASC_NODE":113.2326,"ARG_OF_PERICENTER":243.9375,"MEAN_ANOMALY":35.5547,"EPHEMERIS_TYPE":0,"CLASSIFICATION_TYPE":"U","NORAD_CAT_ID":57086,"ELEMENT_SET_NO":999,"REV_AT_EPOCH":577,"BSTAR":0.0011849312,"MEAN_MOTION_DOT":0.00017445,"MEAN_MOTION_DDOT":0}]
